[{"OBJECT_NAME":"AEROCUBE 4.5A","OBJECT_ID":"2012-048K","EPOCH":"2026-03-09T23:30:53.651232","MEAN_MOTION":15.62097136,"ECCENTRICITY":0.00407508,"INCLINATION":64.6384,"RA_OF_ASC_NODE":19.0525,"ARG_OF_PERICENTER":211.9552,"MEAN_ANOMALY":147.9122,"EPHEMERIS_TYPE":0,"CLASSIFICATION_TYPE":"U","NORAD_CAT_ID":38767,"ELEMENT_SET_NO":999,"REV_AT_EPOCH":35703,"BSTAR":0.0010922172,"MEAN_MOTION_DOT":0.00101362,"MEAN_MOTION_DDOT":0},{"OBJECT_NAME":"STARLINK-11176 [DTC]","OBJECT_ID":"2024-113B","EPOCH":"2026-03-09T14:01:27.008832","MEAN_MOTION":15.69709945,"ECCENTRICITY":0.0001061,"INCLINATION":53.1573,"RA_OF_ASC_NODE":191.8067,"ARG_OF_PERICENTER":97.1103,"MEAN_ANOMALY":263.0035,"EPHEMERIS_TYPE":0,"CLASSIFICATION_TYPE":"U","NORAD_CAT_ID":60060,"ELEMENT_SET_NO":999,"REV_AT_EPOCH":9954,"BSTAR":0.00010788,"MEAN_MOTION_DOT":0.000125,"MEAN_MOTION_DDOT":0}]
